{
"type": "FeatureCollection",
"name": "bariga_selected_wards",
"crs": { "type": "name", "properties": { "name": "urn:ogc:def:crs:OGC:1.3:CRS84" } },
"features": [
{ "type": "Feature", "properties": { "FID": 950, "globalid": "aa8a1b1e-f4c9-4a90-a502-b692b7b224c9", "uniq_id": 500180, "timestamp": "Sat, 16 Mar 2019 00:00:00 GMT", "editor": "oluseye.abraham", "wardname": "Ibuowo / Owotutu", "wardcode": "LASSMU06", "lganame": "Shomolu", "lgacode": "25017", "statename": "Lagos", "statecode": "LA", "amapcode": "Validated", "status": "Authorized", "source": "INEC", "urban": "Yes" }, "geometry": { "type": "MultiPolygon", "coordinates": [ [ [ [ 3.38283929639647, 6.54136077028335 ], [ 3.3827372062571, 6.54087623804799 ], [ 3.38249072097005, 6.53984247275196 ], [ 3.38235911508116, 6.53926651723606 ], [ 3.38234344979043, 6.5391979601178 ], [ 3.38225789998216, 6.53873232083998 ], [ 3.38231747107449, 6.53839320897947 ], [ 3.3825363103025, 6.53769097605777 ], [ 3.38212946510276, 6.53767931814605 ], [ 3.38139546542845, 6.53754823836056 ], [ 3.38077700705327, 6.53724953034163 ], [ 3.3801185917996, 6.53685511467188 ], [ 3.3793763291543, 6.53646060367396 ], [ 3.37881153062767, 6.53699296635239 ], [ 3.37864593756001, 6.53690533281491 ], [ 3.37850623957132, 6.53677579536674 ], [ 3.37827265326041, 6.53643690384007 ], [ 3.37822670419911, 6.5363292352061 ], [ 3.37793692734738, 6.53552367108063 ], [ 3.37769311214748, 6.53484173226019 ], [ 3.37759735593329, 6.53480191297797 ], [ 3.37753349327613, 6.53474013225133 ], [ 3.37748955330028, 6.53465240608369 ], [ 3.37716682259082, 6.53468672781031 ], [ 3.37711258088098, 6.5346899590744 ], [ 3.3771414895881, 6.53494523523449 ], [ 3.37719599390005, 6.53529144094728 ], [ 3.37732401688993, 6.53580991719394 ], [ 3.37743598967921, 6.53620075715924 ], [ 3.3775926012176, 6.53654529103238 ], [ 3.37779544960034, 6.53684990040261 ], [ 3.37802381984346, 6.53714651120259 ], [ 3.37833035376286, 6.53742551237752 ], [ 3.37793821337789, 6.53787417155581 ], [ 3.37738823208127, 6.53846815128418 ], [ 3.37718101299339, 6.53871881572081 ], [ 3.37689886239264, 6.53904293588283 ], [ 3.37683505279551, 6.5390541531267 ], [ 3.37682388231639, 6.53906444676687 ], [ 3.37712000298581, 6.53938130220536 ], [ 3.3772673578024, 6.54014708302151 ], [ 3.37759051479048, 6.54131482481938 ], [ 3.37779204206913, 6.54198163704297 ], [ 3.3782039540493, 6.54236108169863 ], [ 3.37851046278769, 6.54260338423882 ], [ 3.37816284693787, 6.54285894188672 ], [ 3.3777482693672, 6.5431783747822 ], [ 3.37767629392584, 6.54320090819539 ], [ 3.37775500618864, 6.54350956541418 ], [ 3.37786050475853, 6.54377435640146 ], [ 3.37822746862281, 6.54378684528672 ], [ 3.37917522815428, 6.54386272018843 ], [ 3.37948821201144, 6.54422628191742 ], [ 3.37989072787485, 6.54483549975856 ], [ 3.38040819957882, 6.54555313087235 ], [ 3.38075262373462, 6.54529438242986 ], [ 3.38106845664402, 6.54520478926963 ], [ 3.38141943236099, 6.54516941983292 ], [ 3.38156292908593, 6.54504485293768 ], [ 3.38209255063077, 6.54495190620554 ], [ 3.38275935835776, 6.54482694091064 ], [ 3.38349961191761, 6.54477531802655 ], [ 3.38433235265597, 6.5446597983111 ], [ 3.38398099742511, 6.54419415004003 ], [ 3.38367423597725, 6.54362634777777 ], [ 3.38346323434087, 6.54309995929572 ], [ 3.38318522421878, 6.54257362207505 ], [ 3.38304141183175, 6.54228333081113 ], [ 3.38291334117781, 6.54171220195661 ], [ 3.38283929639647, 6.54136077028335 ] ] ] ] } },
{ "type": "Feature", "properties": { "FID": 1074, "globalid": "06a6299f-dce0-4f2e-89c7-20b44086303b", "uniq_id": 500308, "timestamp": "Sat, 16 Mar 2019 00:00:00 GMT", "editor": "oluseye.abraham", "wardname": "Ilaje", "wardcode": "LASSMU10", "lganame": "Shomolu", "lgacode": "25017", "statename": "Lagos", "statecode": "LA", "amapcode": "Validated", "status": "Authorized", "source": "INEC", "urban": "Yes" }, "geometry": { "type": "MultiPolygon", "coordinates": [ [ [ [ 3.39976203269168, 6.53984669866628 ], [ 3.39981841928466, 6.53953008694401 ], [ 3.39998997755549, 6.53858854532518 ], [ 3.40026796159719, 6.53705814112038 ], [ 3.40016258533507, 6.53695929663428 ], [ 3.40010028839765, 6.53686360966788 ], [ 3.40009697889252, 6.53671522242962 ], [ 3.4000872293422, 6.53649184522254 ], [ 3.40013010631941, 6.53624130219441 ], [ 3.40023043738483, 6.53601305066178 ], [ 3.40032909930852, 6.53569385159005 ], [ 3.40036877379993, 6.53542894998611 ], [ 3.40038142006654, 6.535280549258 ], [ 3.40035582715973, 6.53519759759109 ], [ 3.40035896129706, 6.535125793021 ], [ 3.40037325062508, 6.53503961908319 ], [ 3.40040828101741, 6.53495183266102 ], [ 3.40047840385529, 6.5348576367706 ], [ 3.4004543757689, 6.53473639017233 ], [ 3.40046384473072, 6.53460554331122 ], [ 3.40050202904547, 6.53447148227315 ], [ 3.40059921877895, 6.53430705832415 ], [ 3.40073611807742, 6.53392081299518 ], [ 3.40099554460875, 6.533133973654 ], [ 3.40108943203171, 6.53282913855395 ], [ 3.40122778733257, 6.53226897243519 ], [ 3.40131519783813, 6.53184606804166 ], [ 3.40142478292745, 6.53122050412304 ], [ 3.40147863343225, 6.5307258239377 ], [ 3.40148812937372, 6.53063008031398 ], [ 3.40111777776326, 6.53035912267541 ], [ 3.4008719076125, 6.53013752972328 ], [ 3.40048231680555, 6.52974532098983 ], [ 3.40037372007117, 6.52960818606897 ], [ 3.40038287516961, 6.52908322481102 ], [ 3.40035840731468, 6.52840670800322 ], [ 3.40033594135065, 6.52824237938233 ], [ 3.39985412596718, 6.52823956990028 ], [ 3.39964194531956, 6.52824931225598 ], [ 3.39919849501456, 6.52834061322875 ], [ 3.39897038917218, 6.52838706591041 ], [ 3.3988316129886, 6.52841749267321 ], [ 3.39822874615976, 6.52866528827246 ], [ 3.39763704621276, 6.52891307397925 ], [ 3.39711393396095, 6.52914325365828 ], [ 3.39682683439094, 6.52923602502261 ], [ 3.39665301612382, 6.5293398760345 ], [ 3.39628310428191, 6.52962258871156 ], [ 3.39570593018459, 6.53008576834361 ], [ 3.39551620021251, 6.53024388174981 ], [ 3.39540621312631, 6.53036682986533 ], [ 3.39526120284228, 6.53058713678701 ], [ 3.39505566728525, 6.53093354394792 ], [ 3.39491710514034, 6.53123841322224 ], [ 3.39470674382125, 6.53153695576594 ], [ 3.39448515896294, 6.53176370633003 ], [ 3.39434005964608, 6.53187072475419 ], [ 3.39367981607069, 6.53220153227494 ], [ 3.39336886737937, 6.53240282123323 ], [ 3.39287462966047, 6.53284199795991 ], [ 3.39186221516917, 6.53371239061437 ], [ 3.39143488790978, 6.53402865429899 ], [ 3.39126268482511, 6.53416122336182 ], [ 3.39120879025353, 6.53423835191848 ], [ 3.39137962187209, 6.53441797171206 ], [ 3.39090035696597, 6.53491468706318 ], [ 3.39098056210332, 6.5349847640357 ], [ 3.39103168316569, 6.53507088671211 ], [ 3.39104772437304, 6.53518256722174 ], [ 3.39107332177645, 6.53527509217179 ], [ 3.39114047685155, 6.53546332207469 ], [ 3.39122693227716, 6.53585258193118 ], [ 3.39124943241541, 6.53606318426858 ], [ 3.39132292771097, 6.53620034886706 ], [ 3.39146658901194, 6.53629278298558 ], [ 3.39167719314798, 6.53630219169287 ], [ 3.39193561063996, 6.53624774134022 ], [ 3.3919484691466, 6.53636899603237 ], [ 3.39199326707569, 6.53653171306814 ], [ 3.39204444029872, 6.53668485142481 ], [ 3.39208926161018, 6.53687628920943 ], [ 3.39214691624721, 6.53715707014271 ], [ 3.3921119829817, 6.53737090914018 ], [ 3.39220796312702, 6.53769633691644 ], [ 3.39232006092215, 6.5382323733254 ], [ 3.39241645655426, 6.53909073305095 ], [ 3.39244536436212, 6.53933324243525 ], [ 3.39259248805291, 6.53977351363682 ], [ 3.39264389959635, 6.53991532323363 ], [ 3.39281389304676, 6.53985616313145 ], [ 3.39306915481768, 6.5398439962035 ], [ 3.39343811427761, 6.53986165798915 ], [ 3.39398054486628, 6.53983729985157 ], [ 3.39448902155112, 6.53974714821237 ], [ 3.39481805830678, 6.53971697325977 ], [ 3.39522687661912, 6.53970069463139 ], [ 3.39528651605991, 6.53945931389626 ], [ 3.39544604589832, 6.53944123842246 ], [ 3.39591867560642, 6.53941693244553 ], [ 3.39636738964339, 6.53941258872004 ], [ 3.39650102979874, 6.53944040744886 ], [ 3.39660068097669, 6.53935855385424 ], [ 3.39672827768788, 6.5393105849156 ], [ 3.39676614634061, 6.53928063839078 ], [ 3.3968298552137, 6.53914296657467 ], [ 3.39681173567311, 6.53892757534737 ], [ 3.39679344256336, 6.53849079261602 ], [ 3.39685316384248, 6.53835312529657 ], [ 3.3969886341182, 6.53817351179816 ], [ 3.39716203240192, 6.53803974393907 ], [ 3.39733152493, 6.53801168688989 ], [ 3.39759289939286, 6.53816505727161 ], [ 3.39796606498197, 6.53845994856783 ], [ 3.39827138841389, 6.5387070256088 ], [ 3.39839717838714, 6.53889640394596 ], [ 3.39855690517709, 6.53912764032839 ], [ 3.39868465117576, 6.53926715395602 ], [ 3.39933902757411, 6.5395777770928 ], [ 3.39966623960532, 6.53976300595798 ], [ 3.39976203269168, 6.53984669866628 ] ] ] ] } },
{ "type": "Feature", "properties": { "FID": 1075, "globalid": "0a416a1f-de4e-49f9-bf9f-b53ce33bc602", "uniq_id": 500309, "timestamp": "Sat, 16 Mar 2019 00:00:00 GMT", "editor": "oluseye.abraham", "wardname": "Pedro / Gbagada", "wardcode": "LASSMU15", "lganame": "Shomolu", "lgacode": "25017", "statename": "Lagos", "statecode": "LA", "amapcode": "Validated", "status": "Authorized", "source": "INEC", "urban": "Yes" }, "geometry": { "type": "MultiPolygon", "coordinates": [ [ [ [ 3.37767629392584, 6.54320090819539 ], [ 3.3777482693672, 6.5431783747822 ], [ 3.37816284693787, 6.54285894188672 ], [ 3.37851046278769, 6.54260338423882 ], [ 3.3782039540493, 6.54236108169863 ], [ 3.37779204206913, 6.54198163704297 ], [ 3.37759051479048, 6.54131482481938 ], [ 3.3772673578024, 6.54014708302151 ], [ 3.37712000298581, 6.53938130220536 ], [ 3.37682388231639, 6.53906444676687 ], [ 3.37651618467424, 6.53934798412223 ], [ 3.37611914838004, 6.53965463675212 ], [ 3.37578267333174, 6.53987348677202 ], [ 3.37543342611178, 6.5400811771047 ], [ 3.37521332423557, 6.54017548181309 ], [ 3.37483049992767, 6.54028586370168 ], [ 3.37448113309785, 6.54033399271964 ], [ 3.37405993561759, 6.54033590198031 ], [ 3.37405809290669, 6.54000242077512 ], [ 3.37407352527305, 6.5393003416375 ], [ 3.37407151708692, 6.53874507232729 ], [ 3.37408200318197, 6.53782759027115 ], [ 3.37386341396541, 6.53780860468339 ], [ 3.37353629636306, 6.53773704562821 ], [ 3.37346774913738, 6.537813685853 ], [ 3.37344380918449, 6.53780253425958 ], [ 3.37336804220143, 6.5378700580568 ], [ 3.373148143572, 6.53823721077868 ], [ 3.37285659235789, 6.53879589031811 ], [ 3.3725585606291, 6.53922373378833 ], [ 3.37227653863141, 6.53972496283683 ], [ 3.37251453521765, 6.53988147634908 ], [ 3.37298387160843, 6.54025290534736 ], [ 3.37325845801149, 6.54048087269416 ], [ 3.3733127743651, 6.54057656865376 ], [ 3.37298768563323, 6.54109378674889 ], [ 3.37278379223829, 6.54152953885716 ], [ 3.37270899472435, 6.54178489235892 ], [ 3.37227353039918, 6.54191126779085 ], [ 3.37219693334185, 6.54189058068579 ], [ 3.3719862275824, 6.54174872792152 ], [ 3.3718760588331, 6.54163711665967 ], [ 3.37173573761424, 6.54174253069328 ], [ 3.37129725156694, 6.54210027111066 ], [ 3.3711920407801, 6.54222001943839 ], [ 3.37106773738623, 6.54241158402743 ], [ 3.3709594194417, 6.54264621804856 ], [ 3.37095969283558, 6.54301799508443 ], [ 3.37095509819926, 6.54327648722017 ], [ 3.37094099862821, 6.54362912578358 ], [ 3.37093476542714, 6.54383017822022 ], [ 3.37094121896212, 6.54392750465064 ], [ 3.37096715181264, 6.54447797068184 ], [ 3.370967311892, 6.54469497259498 ], [ 3.37090030070834, 6.54469183126304 ], [ 3.36978026344843, 6.54465914900055 ], [ 3.36859321770288, 6.54462970429745 ], [ 3.36848469561227, 6.54458829771181 ], [ 3.368425596664, 6.54449739244075 ], [ 3.36844254528728, 6.54367564141779 ], [ 3.3681936408239, 6.54365827101242 ], [ 3.36718052216344, 6.54365422586187 ], [ 3.36717580521929, 6.54374996588825 ], [ 3.36712794060202, 6.54374840466517 ], [ 3.36707973244376, 6.54574563435358 ], [ 3.36705655961259, 6.54695527016963 ], [ 3.36704611218835, 6.54777208121664 ], [ 3.36700591429155, 6.54953047075469 ], [ 3.36699415655511, 6.55090908468657 ], [ 3.36695420687118, 6.55300574342039 ], [ 3.36689215544868, 6.55542472996734 ], [ 3.36686454895982, 6.55694696023409 ], [ 3.36692591509893, 6.55847896343346 ], [ 3.36761987066058, 6.55840278186292 ], [ 3.36822860556572, 6.55825298628633 ], [ 3.36882582735012, 6.55806873408488 ], [ 3.36952631019113, 6.55771207914916 ], [ 3.37004300667945, 6.55737853499147 ], [ 3.37055963481936, 6.55695308371787 ], [ 3.37213226039557, 6.55536652494521 ], [ 3.374209931743, 6.55325111984337 ], [ 3.37600063212352, 6.55144610855109 ], [ 3.37766215838195, 6.54981315735137 ], [ 3.37783726897482, 6.54964105678937 ], [ 3.37825837202632, 6.54932261404747 ], [ 3.37875598580013, 6.54894631162301 ], [ 3.37899301111861, 6.548767070444 ], [ 3.37856244090398, 6.54806670091756 ], [ 3.37779249892475, 6.5468354723792 ], [ 3.37769347007765, 6.54668875068535 ], [ 3.37770613972663, 6.54656428361483 ], [ 3.37774753102377, 6.54644298665454 ], [ 3.37779529221899, 6.54630572942591 ], [ 3.37775012916518, 6.54565475516284 ], [ 3.37776875862136, 6.54496863089764 ], [ 3.37718481083039, 6.54495630389039 ], [ 3.37690403169574, 6.54498523597988 ], [ 3.3764254152008, 6.54501431465894 ], [ 3.37610631055782, 6.54499859810687 ], [ 3.37599396275124, 6.54410833403244 ], [ 3.37594570602954, 6.54358181874596 ], [ 3.37651680970305, 6.54348884683287 ], [ 3.37704324315121, 6.54339909808994 ], [ 3.37767629392584, 6.54320090819539 ] ] ] ] } },
{ "type": "Feature", "properties": { "FID": 1076, "globalid": "2d38cd96-f463-4b34-a5b1-bf8a4b25536f", "uniq_id": 500310, "timestamp": "Sat, 16 Mar 2019 00:00:00 GMT", "editor": "oluseye.abraham", "wardname": "Aiyetoro / Mafowoku", "wardcode": "LASSMU01", "lganame": "Shomolu", "lgacode": "25017", "statename": "Lagos", "statecode": "LA", "amapcode": "Validated", "status": "Authorized", "source": "INEC", "urban": "Yes" }, "geometry": { "type": "MultiPolygon", "coordinates": [ [ [ [ 3.38995489610164, 6.53631451330421 ], [ 3.38982653856397, 6.53623435133431 ], [ 3.38956515780586, 6.53606701538052 ], [ 3.38922401617543, 6.53591370165606 ], [ 3.38892281433647, 6.53583016542984 ], [ 3.38881910182016, 6.53581827909034 ], [ 3.38861359324278, 6.53569278319543 ], [ 3.38829440586221, 6.53556139224452 ], [ 3.38819664775713, 6.53551160487672 ], [ 3.38794129605401, 6.53540409902001 ], [ 3.38771393395092, 6.53538632302042 ], [ 3.38726122962208, 6.53538467726111 ], [ 3.38710765329563, 6.53536285611096 ], [ 3.38685832075492, 6.53530321217357 ], [ 3.38675658135122, 6.5352614062889 ], [ 3.38663115110677, 6.53553474982891 ], [ 3.38662367594196, 6.53618895355743 ], [ 3.38646424772691, 6.53633866369842 ], [ 3.38638063325965, 6.53652820571216 ], [ 3.38637687139556, 6.53682339558327 ], [ 3.38643096291867, 6.53714446974152 ], [ 3.386275487224, 6.53724630986937 ], [ 3.38617986860612, 6.53738799266176 ], [ 3.3861081710553, 6.53751370169601 ], [ 3.38607237893717, 6.53765135012975 ], [ 3.38585924770615, 6.53798858600447 ], [ 3.38546874228865, 6.53847953400333 ], [ 3.38493872414284, 6.53908826441193 ], [ 3.38485303404036, 6.53917209921303 ], [ 3.38464565487311, 6.53921015312613 ], [ 3.38424479016498, 6.53919649782017 ], [ 3.38343904977239, 6.53914126685601 ], [ 3.38263616922387, 6.5391737899385 ], [ 3.38243996233444, 6.53921702124859 ], [ 3.38235911508116, 6.53926651723606 ], [ 3.38249072097005, 6.53984247275196 ], [ 3.3827372062571, 6.54087623804799 ], [ 3.38283929639647, 6.54136077028335 ], [ 3.3841203851477, 6.54133696522882 ], [ 3.38415884105774, 6.54155393836362 ], [ 3.3845613839008, 6.54219506415092 ], [ 3.38494484043207, 6.54290960159688 ], [ 3.38520365992099, 6.54337532001506 ], [ 3.38541163443944, 6.54411233061961 ], [ 3.38588714557534, 6.54419812774142 ], [ 3.38602118592905, 6.54422674596759 ], [ 3.38643292703802, 6.54437322574381 ], [ 3.38670068129147, 6.54400603075379 ], [ 3.38709914930632, 6.54349193870206 ], [ 3.38739242542016, 6.54311834233766 ], [ 3.38749438695646, 6.54292679033915 ], [ 3.38771744490418, 6.54253090787512 ], [ 3.38827533034225, 6.54185394230564 ], [ 3.38866809935337, 6.54222700986867 ], [ 3.38906023434237, 6.54177993709447 ], [ 3.38940190387478, 6.54209560183062 ], [ 3.38962180879946, 6.54175078107374 ], [ 3.38972055615881, 6.54153051102429 ], [ 3.38979697694896, 6.54132302393845 ], [ 3.38990191973784, 6.54086340831969 ], [ 3.38994323639128, 6.54064956482563 ], [ 3.38991441671703, 6.54051874764212 ], [ 3.3900895569875, 6.54005588726943 ], [ 3.39016908403607, 6.53973989518005 ], [ 3.39021196191254, 6.53948310276303 ], [ 3.39018169432978, 6.53902837855685 ], [ 3.39012773680565, 6.53888481618139 ], [ 3.39004394876929, 6.53884897999649 ], [ 3.39003988563229, 6.53875324716466 ], [ 3.39008554691048, 6.53848594796818 ], [ 3.38998179122672, 6.53841821462896 ], [ 3.39005138166596, 6.53814690805342 ], [ 3.39022249387307, 6.53763418656848 ], [ 3.39030611283687, 6.53745262333996 ], [ 3.39038182226335, 6.53735682755558 ], [ 3.39042567770292, 6.53733285882441 ], [ 3.39067054241167, 6.53677420806332 ], [ 3.39029542439437, 6.53652717958573 ], [ 3.38995489610164, 6.53631451330421 ] ] ] ] } },
{ "type": "Feature", "properties": { "FID": 1085, "globalid": "ed0a8bcf-c3a2-4d9e-aa3e-1a18f9eaf2d0", "uniq_id": 500317, "timestamp": "Sat, 16 Mar 2019 00:00:00 GMT", "editor": "oluseye.abraham", "wardname": "Owode  / Orile Bariga", "wardcode": "LASSMU14", "lganame": "Shomolu", "lgacode": "25017", "statename": "Lagos", "statecode": "LA", "amapcode": "Validated", "status": "Authorized", "source": "INEC", "urban": "Yes" }, "geometry": { "type": "MultiPolygon", "coordinates": [ [ [ [ 3.38995489610164, 6.53631451330421 ], [ 3.39012397404224, 6.53600338294979 ], [ 3.39045956775487, 6.53548231665565 ], [ 3.39088320599518, 6.53493246216345 ], [ 3.39090035696597, 6.53491468706318 ], [ 3.39137962187209, 6.53441797171206 ], [ 3.39120879025353, 6.53423835191848 ], [ 3.39107209240319, 6.53409462316836 ], [ 3.39079535931842, 6.53398378442415 ], [ 3.39048893061971, 6.53384616117143 ], [ 3.39019785604626, 6.53375639534141 ], [ 3.389821514951, 6.53357478714673 ], [ 3.3893896047465, 6.53333099442989 ], [ 3.38907637897177, 6.53306604606121 ], [ 3.38877458717752, 6.53273311703975 ], [ 3.38862218536559, 6.53247474721184 ], [ 3.38849943959752, 6.53219433410129 ], [ 3.38819644361104, 6.53153973107379 ], [ 3.38795578143419, 6.53102868412651 ], [ 3.38784357392183, 6.53075688022591 ], [ 3.38767484581751, 6.53042959085298 ], [ 3.38752233338903, 6.53002570082549 ], [ 3.38741215564653, 6.52990420061843 ], [ 3.3873719451592, 6.52989561569018 ], [ 3.38735790674207, 6.52987741700923 ], [ 3.38733220681593, 6.52998360805714 ], [ 3.38689359396426, 6.53014550041456 ], [ 3.38659065823236, 6.53039704079083 ], [ 3.38627969425255, 6.53058077408349 ], [ 3.38600257266063, 6.53068869003107 ], [ 3.38517917677763, 6.53099846870441 ], [ 3.3847523801183, 6.53113075807806 ], [ 3.38470456496373, 6.53119302263991 ], [ 3.38473830572826, 6.53150414130312 ], [ 3.38484163693204, 6.5320617263676 ], [ 3.38480589067933, 6.53226040639271 ], [ 3.38464099008968, 6.53255492177226 ], [ 3.38443296430989, 6.53278484784249 ], [ 3.38424160116898, 6.53289987832676 ], [ 3.3840526841841, 6.53308431398995 ], [ 3.3836676736243, 6.53345797960213 ], [ 3.38333215095804, 6.53379035284257 ], [ 3.38312885920953, 6.53395405733391 ], [ 3.3828597550737, 6.53411781128801 ], [ 3.38264045359409, 6.53420972469911 ], [ 3.38245303667833, 6.53426970318429 ], [ 3.38218591734625, 6.53441949426428 ], [ 3.3815261117407, 6.53481889577546 ], [ 3.38104970667865, 6.53512242236195 ], [ 3.38070088214005, 6.53535404905017 ], [ 3.38040749181232, 6.53504911142738 ], [ 3.38025773220863, 6.53479991108708 ], [ 3.37991679832163, 6.53491784368362 ], [ 3.37961370430907, 6.53496793592154 ], [ 3.37923684340564, 6.5350460060684 ], [ 3.37910127690247, 6.53510594318476 ], [ 3.3791712063861, 6.53527741781863 ], [ 3.37927506998852, 6.53549075229643 ], [ 3.37939488936269, 6.53570606888002 ], [ 3.37964441435827, 6.53602300795552 ], [ 3.37972426876007, 6.53613264520544 ], [ 3.3793763291543, 6.53646060367396 ], [ 3.3801185917996, 6.53685511467188 ], [ 3.38077700705327, 6.53724953034163 ], [ 3.38139546542845, 6.53754823836056 ], [ 3.38212946510276, 6.53767931814605 ], [ 3.3825363103025, 6.53769097605777 ], [ 3.38231747107449, 6.53839320897947 ], [ 3.38225789998216, 6.53873232083998 ], [ 3.38234344979043, 6.5391979601178 ], [ 3.38235911508116, 6.53926651723606 ], [ 3.38243996233444, 6.53921702124859 ], [ 3.38263616922387, 6.5391737899385 ], [ 3.38343904977239, 6.53914126685601 ], [ 3.38424479016498, 6.53919649782017 ], [ 3.38464565487311, 6.53921015312613 ], [ 3.38485303404036, 6.53917209921303 ], [ 3.38493872414284, 6.53908826441193 ], [ 3.38546874228865, 6.53847953400333 ], [ 3.38585924770615, 6.53798858600447 ], [ 3.38607237893717, 6.53765135012975 ], [ 3.3861081710553, 6.53751370169601 ], [ 3.38617986860612, 6.53738799266176 ], [ 3.386275487224, 6.53724630986937 ], [ 3.38643096291867, 6.53714446974152 ], [ 3.38637687139556, 6.53682339558327 ], [ 3.38638063325965, 6.53652820571216 ], [ 3.38646424772691, 6.53633866369842 ], [ 3.38662367594196, 6.53618895355743 ], [ 3.38663115110677, 6.53553474982891 ], [ 3.38675658135122, 6.5352614062889 ], [ 3.38685832075492, 6.53530321217357 ], [ 3.38710765329563, 6.53536285611096 ], [ 3.38726122962208, 6.53538467726111 ], [ 3.38771393395092, 6.53538632302042 ], [ 3.38794129605401, 6.53540409902001 ], [ 3.38819664775713, 6.53551160487672 ], [ 3.38829440586221, 6.53556139224452 ], [ 3.38861359324278, 6.53569278319543 ], [ 3.38881910182016, 6.53581827909034 ], [ 3.38892281433647, 6.53583016542984 ], [ 3.38922401617543, 6.53591370165606 ], [ 3.38956515780586, 6.53606701538052 ], [ 3.38982653856397, 6.53623435133431 ], [ 3.38995489610164, 6.53631451330421 ] ] ] ] } }
]
}
